WEILAI 1R               
1 44884U 19093F   26162.58679789  .00004870  00000+0  38910-3 0  9998
2 44884  97.7847 252.4646 0017947  53.1466 307.1400 15.00598113351584
FLORIPASAT-1            
1 44885U 19093G   26162.50322485  .00005346  00000+0  39255-3 0  9991
2 44885  97.7916 256.6937 0013390  89.5841 270.6919 15.03818759351795
SHUNTIAN                
1 44886U 19093H   26162.58642170  .00002504  00000+0  23322-3 0  9997
2 44886  97.8002 250.7753 0013184  85.4286 274.8440 14.95129926351340
ELEKTRO-L 3             
1 44903U 19095A   26162.63821287 -.00000080  00000+0  00000+0 0  9995
2 44903   0.2412  81.4229 0001222 354.7820 129.4878  1.00271958 23651
GONETS-M 14             
1 44905U 19096A   26162.57430385  .00000004  00000+0 -41393-4 0  9997
2 44905  82.5228  88.1197 0013278 160.0079 200.1523 12.42869770292988
GONETS-M 15             
1 44906U 19096B   26162.60370931  .00000040  00000+0  21737-3 0  9990
2 44906  82.5248  88.5621 0014663 183.8441 176.2528 12.42871474292951
GONETS-M 16             
1 44907U 19096C   26162.63001993 -.00000043  00000+0 -38462-3 0  9991
2 44907  82.5194  87.5007 0009690 227.9891 132.0364 12.42891525292948
RS-44 & BREEZE-KM R/B   
1 44909U 19096E   26162.61066808  .00000028  00000+0  60927-4 0  9990
2 44909  82.5217 343.4113 0217927 157.1662 203.9312 12.79748751301632
JILIN-1 KUANFU 01       
1 45016U 20003A   26162.58925434  .00002296  00000+0  14243-3 0  9993
2 45016  97.5032 236.6536 0008678 330.0748  29.9984 15.10694314354488
XINGYUN-2 01            
1 45602U 20028A   26162.58219414  .00002482  00000+0  14910-3 0  9993
2 45602  97.4867 155.0937 0007918 215.0290 145.0421 15.11785518333990
XINGYUN-2 02            
1 45603U 20028B   26162.62602350  .00002552  00000+0  15433-3 0  9993
2 45603  97.5071 168.7150 0009485 295.7814  64.2437 15.11516501333998
HAIYANG-1D              
1 45721U 20036A   26162.60106418 -.00000032  00000+0  40785-5 0  9997
2 45721  98.4550 104.4018 0003114 140.8863 219.2548 14.34171048314179
M2 PATHFINDER           
1 45727U 20037E   26162.46073950  .00001931  00000+0  14173-3 0  9990
2 45727  97.8158 353.6285 0011967 164.5822 195.5770 15.04652768324635
GAOFEN DUOMO (GFDM)     
1 45856U 20042A   26162.65179277  .00000673  00000+0  10269-3 0  9993
2 45856  97.7751 222.7392 0012486  90.4336 269.8306 14.76872503320191
ZIYUAN 3-03 (ZY 3-03)   
1 45939U 20051A   26162.59385654  .00006609  00000+0  29671-3 0  9998
2 45939  97.2840 230.5010 0003746 345.0038  15.1086 15.21492202326499
NEMO-HD                 
1 46277U 20061F   26162.62289694  .00009790  00000+0  21315-3 0  9997
2 46277  97.1928 224.6320 0002463  87.3067 272.8464 15.44482649321128
NAPA-1                  
1 46320U 20061BA  26162.60922647  .00063987  00000+0  59428-3 0  9990
2 46320  97.2472 236.6083 0001232 163.8363 196.2937 15.67244428320863
JILIN-1 GAOFEN 3E       
1 46457U 20065D   26162.58915797  .00057852  00000+0  63465-3 0  9990
2 46457  97.2258 215.0711 0012539 174.5651 185.5746 15.62961278318888
JILIN-1 GAOFEN 3F       
1 46458U 20065E   26162.60453153  .00050534  00000+0  61341-3 0  9998
2 46458  97.2214 212.4484 0014141 163.8289 196.3423 15.60335254318832
JILIN-1 GAOFEN 3G       
1 46459U 20065F   26162.60532659  .00088360  00000+0  72284-3 0  9994
2 46459  97.2283 219.1620 0009550  83.0354 277.1995 15.70213812319063
JILIN-1 GAOFEN 3H       
1 46460U 20065G   26162.56500418  .00074130  00000+0  69490-3 0  9994
2 46460  97.2229 215.4815 0004424  21.7966 338.3483 15.66966809319005
HAIYANG-2C              
1 46469U 20066A   26162.59909086 -.00000028  00000+0  48085-4 0  9995
2 46469  65.9970 229.1969 0009134 238.2433 121.7746 13.83374744288726
HJ-2A                   
1 46478U 20067A   26162.60819942  .00000827  00000+0  12589-3 0  9994
2 46478  97.8826 241.1129 0002442 297.1806  62.9155 14.76510575307432
HJ-2B                   
1 46479U 20067B   26162.64524433  .00000729  00000+0  11162-3 0  9994
2 46479  97.8889 242.1657 0001210  96.2966 263.8382 14.76551501307445
GONETS-M 17             
1 46486U 20068A   26162.57457554  .00000133  00000+0  88586-3 0  9997
2 46486  82.4995 350.9955 0023283  49.2288 311.0808 12.42873259258463
GONETS-M 18             
1 46487U 20068B   26162.61873096  .00000048  00000+0  27142-3 0  9992
2 46487  82.4949 350.0880 0020532  45.8304 314.4459 12.42873033258454
