OBJECT_NAME,OBJECT_ID,EPOCH,MEAN_MOTION,ECCENTRICITY,INCLINATION,RA_OF_ASC_NODE,ARG_OF_PERICENTER,MEAN_ANOMALY,EPHEMERIS_TYPE,CLASSIFICATION_TYPE,NORAD_CAT_ID,ELEMENT_SET_NO,REV_AT_EPOCH,BSTAR,MEAN_MOTION_DOT,MEAN_MOTION_DDOT
WEILAI 1R,2019-093F,2026-06-11T14:04:59.337696,15.00598113,.00179478,97.7847,252.4646,53.1466,307.1400,0,U,44884,999,35158,.38909574E-3,.487E-4,0
FLORIPASAT-1,2019-093G,2026-06-11T12:04:38.627040,15.03818759,.00133907,97.7916,256.6937,89.5841,270.6919,0,U,44885,999,35179,.39254892E-3,.5346E-4,0
SHUNTIAN,2019-093H,2026-06-11T14:04:26.834880,14.95129926,.00131846,97.8002,250.7753,85.4286,274.8440,0,U,44886,999,35134,.23322126E-3,.2504E-4,0
ELEKTRO-L 3,2019-095A,2026-06-11T15:19:01.591968,1.00271958,.00012224,0.2412,81.4229,354.7820,129.4878,0,U,44903,999,2365,0,-.8E-6,0
GONETS-M 14,2019-096A,2026-06-11T13:46:59.852640,12.42869770,.00132781,82.5228,88.1197,160.0079,200.1523,0,U,44905,999,29298,-.41392881E-4,.4E-7,0
GONETS-M 15,2019-096B,2026-06-11T14:29:20.484384,12.42871474,.0014663,82.5248,88.5621,183.8441,176.2528,0,U,44906,999,29295,.21736771E-3,.4E-6,0
GONETS-M 16,2019-096C,2026-06-11T15:07:13.721952,12.42891525,.000969,82.5194,87.5007,227.9891,132.0364,0,U,44907,999,29294,-.38462107E-3,-.43E-6,0
RS-44 & BREEZE-KM R/B,2019-096E,2026-06-11T14:39:21.722112,12.79748751,.02179272,82.5217,343.4113,157.1662,203.9312,0,U,44909,999,30163,.60926775E-4,.28E-6,0
JILIN-1 KUANFU 01,2020-003A,2026-06-11T14:08:31.574976,15.10694314,.00086781,97.5032,236.6536,330.0748,29.9984,0,U,45016,999,35448,.14242615E-3,.2296E-4,0
XINGYUN-2 01,2020-028A,2026-06-11T13:58:21.573696,15.11785518,.00079183,97.4867,155.0937,215.0290,145.0421,0,U,45602,999,33399,.14910258E-3,.2482E-4,0
XINGYUN-2 02,2020-028B,2026-06-11T15:01:28.430400,15.11516501,.00094853,97.5071,168.7150,295.7814,64.2437,0,U,45603,999,33399,.15433486E-3,.2552E-4,0
HAIYANG-1D,2020-036A,2026-06-11T14:25:31.945152,14.34171048,.00031141,98.4550,104.4018,140.8863,219.2548,0,U,45721,999,31417,.4078451E-5,-.32E-6,0
M2 PATHFINDER,2020-037E,2026-06-11T11:03:27.892800,15.04652768,.0011967,97.8158,353.6285,164.5822,195.5770,0,U,45727,999,32463,.1417281E-3,.1931E-4,0
GAOFEN DUOMO (GFDM),2020-042A,2026-06-11T15:38:34.895328,14.76872503,.00124869,97.7751,222.7392,90.4336,269.8306,0,U,45856,999,32019,.10268893E-3,.673E-5,0
ZIYUAN 3-03 (ZY 3-03),2020-051A,2026-06-11T14:15:09.205056,15.21492202,.00037465,97.2840,230.5010,345.0038,15.1086,0,U,45939,999,32649,.29671318E-3,.6609E-4,0
NEMO-HD,2020-061F,2026-06-11T14:56:58.295616,15.44482649,.00024631,97.1928,224.6320,87.3067,272.8464,0,U,46277,999,32112,.21315216E-3,.979E-4,0
NAPA-1,2020-061BA,2026-06-11T14:37:17.167008,15.67244428,.00012324,97.2472,236.6083,163.8363,196.2937,0,U,46320,999,32086,.59427778E-3,.63987E-3,0
JILIN-1 GAOFEN 3E,2020-065D,2026-06-11T14:08:23.248608,15.62961278,.00125395,97.2258,215.0711,174.5651,185.5746,0,U,46457,999,31888,.63464664E-3,.57852E-3,0
JILIN-1 GAOFEN 3F,2020-065E,2026-06-11T14:30:31.524192,15.60335254,.0014141,97.2214,212.4484,163.8289,196.3423,0,U,46458,999,31883,.61340835E-3,.50534E-3,0
JILIN-1 GAOFEN 3G,2020-065F,2026-06-11T14:31:40.217376,15.70213812,.000955,97.2283,219.1620,83.0354,277.1995,0,U,46459,999,31906,.72284102E-3,.8836E-3,0
JILIN-1 GAOFEN 3H,2020-065G,2026-06-11T13:33:36.361152,15.66966809,.00044242,97.2229,215.4815,21.7966,338.3483,0,U,46460,999,31900,.69489686E-3,.7413E-3,0
HAIYANG-2C,2020-066A,2026-06-11T14:22:41.450304,13.83374744,.00091345,65.9970,229.1969,238.2433,121.7746,0,U,46469,999,28872,.48085062E-4,-.28E-6,0
HJ-2A,2020-067A,2026-06-11T14:35:48.429888,14.76510575,.0002442,97.8826,241.1129,297.1806,62.9155,0,U,46478,999,30743,.12589031E-3,.827E-5,0
HJ-2B,2020-067B,2026-06-11T15:29:09.110112,14.76551501,.000121,97.8889,242.1657,96.2966,263.8382,0,U,46479,999,30744,.11161678E-3,.729E-5,0
GONETS-M 17,2020-068A,2026-06-11T13:47:23.326656,12.42873259,.00232835,82.4995,350.9955,49.2288,311.0808,0,U,46486,999,25846,.88585933E-3,.133E-5,0
GONETS-M 18,2020-068B,2026-06-11T14:50:58.354944,12.42873033,.00205323,82.4949,350.0880,45.8304,314.4459,0,U,46487,999,25845,.27142419E-3,.48E-6,0
